[{"OBJECT_NAME":"HELIOS 1B","OBJECT_ID":"1999-064A","EPOCH":"2026-04-02T15:46:27.117120","MEAN_MOTION":14.87792668,"ECCENTRICITY":0.00015922,"INCLINATION":98.1673,"RA_OF_ASC_NODE":355.6027,"ARG_OF_PERICENTER":45.4257,"MEAN_ANOMALY":314.7088,"EPHEMERIS_TYPE":0,"CLASSIFICATION_TYPE":"U","NORAD_CAT_ID":25977,"ELEMENT_SET_NO":999,"REV_AT_EPOCH":68882,"BSTAR":0.00024193031,"MEAN_MOTION_DOT":2.151e-5,"MEAN_MOTION_DDOT":0},{"OBJECT_NAME":"TERRA","OBJECT_ID":"1999-068A","EPOCH":"2026-04-02T20:00:08.580096","MEAN_MOTION":14.610418,"ECCENTRICITY":0.0003661,"INCLINATION":97.9542,"RA_OF_ASC_NODE":145.3398,"ARG_OF_PERICENTER":101.8147,"MEAN_ANOMALY":17.9302,"EPHEMERIS_TYPE":0,"CLASSIFICATION_TYPE":"U","NORAD_CAT_ID":25994,"ELEMENT_SET_NO":999,"REV_AT_EPOCH":39860,"BSTAR":0.000151,"MEAN_MOTION_DOT":6.97e-6,"MEAN_MOTION_DDOT":0},{"OBJECT_NAME":"SL-16 R/B","OBJECT_ID":"2000-006B","EPOCH":"2026-04-02T14:38:25.582848","MEAN_MOTION":14.15830286,"ECCENTRICITY":0.0015361,"INCLINATION":71.0035,"RA_OF_ASC_NODE":47.5371,"ARG_OF_PERICENTER":152.3192,"MEAN_ANOMALY":207.8752,"EPHEMERIS_TYPE":0,"CLASSIFICATION_TYPE":"U","NORAD_CAT_ID":26070,"ELEMENT_SET_NO":999,"REV_AT_EPOCH":35194,"BSTAR":0.00011225083,"MEAN_MOTION_DOT":1.73e-6,"MEAN_MOTION_DDOT":0},{"OBJECT_NAME":"TITAN 4B R/B","OBJECT_ID":"2000-047B","EPOCH":"2026-04-02T21:05:34.692864","MEAN_MOTION":15.09791101,"ECCENTRICITY":0.004017,"INCLINATION":67.9907,"RA_OF_ASC_NODE":332.4827,"ARG_OF_PERICENTER":7.0395,"MEAN_ANOMALY":353.1309,"EPHEMERIS_TYPE":0,"CLASSIFICATION_TYPE":"U","NORAD_CAT_ID":26474,"ELEMENT_SET_NO":999,"REV_AT_EPOCH":39656,"BSTAR":0.00037512,"MEAN_MOTION_DOT":6.058e-5,"MEAN_MOTION_DDOT":0},{"OBJECT_NAME":"ENVISAT","OBJECT_ID":"2002-009A","EPOCH":"2026-04-02T20:51:34.354368","MEAN_MOTION":14.39045523,"ECCENTRICITY":0.0001203,"INCLINATION":98.3769,"RA_OF_ASC_NODE":45.8968,"ARG_OF_PERICENTER":82.2037,"MEAN_ANOMALY":291.389,"EPHEMERIS_TYPE":0,"CLASSIFICATION_TYPE":"U","NORAD_CAT_ID":27386,"ELEMENT_SET_NO":999,"REV_AT_EPOCH":26265,"BSTAR":6.2188e-5,"MEAN_MOTION_DOT":1.49e-6,"MEAN_MOTION_DDOT":0},{"OBJECT_NAME":"IDEFIX & ARIANE 42P R/B","OBJECT_ID":"2002-021B","EPOCH":"2026-04-02T19:52:07.815936","MEAN_MOTION":14.31043524,"ECCENTRICITY":0.0012824,"INCLINATION":98.5898,"RA_OF_ASC_NODE":31.1497,"ARG_OF_PERICENTER":113.8354,"MEAN_ANOMALY":246.4175,"EPHEMERIS_TYPE":0,"CLASSIFICATION_TYPE":"U","NORAD_CAT_ID":27422,"ELEMENT_SET_NO":999,"REV_AT_EPOCH":24747,"BSTAR":0.00018323,"MEAN_MOTION_DOT":4.39e-6,"MEAN_MOTION_DDOT":0},{"OBJECT_NAME":"AQUA","OBJECT_ID":"2002-022A","EPOCH":"2026-04-02T21:43:03.861120","MEAN_MOTION":14.62035849,"ECCENTRICITY":0.0001329,"INCLINATION":98.4216,"RA_OF_ASC_NODE":60.7186,"ARG_OF_PERICENTER":115.9286,"MEAN_ANOMALY":266.8537,"EPHEMERIS_TYPE":0,"CLASSIFICATION_TYPE":"U","NORAD_CAT_ID":27424,"ELEMENT_SET_NO":999,"REV_AT_EPOCH":27227,"BSTAR":0.00032447,"MEAN_MOTION_DOT":1.579e-5,"MEAN_MOTION_DDOT":0},{"OBJECT_NAME":"CZ-4B R/B","OBJECT_ID":"2002-024C","EPOCH":"2026-04-02T09:42:37.073664","MEAN_MOTION":14.14551994,"ECCENTRICITY":0.00493293,"INCLINATION":98.8786,"RA_OF_ASC_NODE":145.6863,"ARG_OF_PERICENTER":316.5339,"MEAN_ANOMALY":53.4279,"EPHEMERIS_TYPE":0,"CLASSIFICATION_TYPE":"U","NORAD_CAT_ID":27432,"ELEMENT_SET_NO":999,"REV_AT_EPOCH":23259,"BSTAR":6.3194872e-5,"MEAN_MOTION_DOT":7.8e-7,"MEAN_MOTION_DDOT":0},{"OBJECT_NAME":"MIDORI II (ADEOS-II)","OBJECT_ID":"2002-056A","EPOCH":"2026-04-02T21:14:39.940800","MEAN_MOTION":14.2930465,"ECCENTRICITY":4.75e-5,"INCLINATION":98.7811,"RA_OF_ASC_NODE":51.5364,"ARG_OF_PERICENTER":21.528,"MEAN_ANOMALY":338.5921,"EPHEMERIS_TYPE":0,"CLASSIFICATION_TYPE":"U","NORAD_CAT_ID":27597,"ELEMENT_SET_NO":999,"REV_AT_EPOCH":21375,"BSTAR":0.00021211,"MEAN_MOTION_DOT":4.94e-6,"MEAN_MOTION_DDOT":0},{"OBJECT_NAME":"H-2A R/B","OBJECT_ID":"2002-056E","EPOCH":"2026-04-02T15:58:41.174976","MEAN_MOTION":14.33777565,"ECCENTRICITY":0.00714424,"INCLINATION":98.3245,"RA_OF_ASC_NODE":52.1247,"ARG_OF_PERICENTER":90.1278,"MEAN_ANOMALY":82.6334,"EPHEMERIS_TYPE":0,"CLASSIFICATION_TYPE":"U","NORAD_CAT_ID":27601,"ELEMENT_SET_NO":999,"REV_AT_EPOCH":21754,"BSTAR":0.00015104863,"MEAN_MOTION_DOT":3.91e-6,"MEAN_MOTION_DDOT":0},{"OBJECT_NAME":"CZ-4B R/B","OBJECT_ID":"2003-049C","EPOCH":"2026-04-02T17:27:10.162944","MEAN_MOTION":14.550422,"ECCENTRICITY":0.0048582,"INCLINATION":98.6896,"RA_OF_ASC_NODE":88.579,"ARG_OF_PERICENTER":157.0932,"MEAN_ANOMALY":203.2445,"EPHEMERIS_TYPE":0,"CLASSIFICATION_TYPE":"U","NORAD_CAT_ID":28059,"ELEMENT_SET_NO":999,"REV_AT_EPOCH":19009,"BSTAR":0.00011429,"MEAN_MOTION_DOT":4.49e-6,"MEAN_MOTION_DDOT":0},{"OBJECT_NAME":"CZ-2C R/B","OBJECT_ID":"2004-012C","EPOCH":"2026-04-02T15:15:26.862912","MEAN_MOTION":15.67539256,"ECCENTRICITY":0.00135109,"INCLINATION":97.7172,"RA_OF_ASC_NODE":160.2446,"ARG_OF_PERICENTER":215.5005,"MEAN_ANOMALY":144.5357,"EPHEMERIS_TYPE":0,"CLASSIFICATION_TYPE":"U","NORAD_CAT_ID":28222,"ELEMENT_SET_NO":999,"REV_AT_EPOCH":20802,"BSTAR":0.00064756429,"MEAN_MOTION_DOT":0.00070965,"MEAN_MOTION_DDOT":0},{"OBJECT_NAME":"SL-16 R/B","OBJECT_ID":"2004-021B","EPOCH":"2026-04-02T17:04:30.207936","MEAN_MOTION":14.14598383,"ECCENTRICITY":0.0005286,"INCLINATION":71.0011,"RA_OF_ASC_NODE":182.0825,"ARG_OF_PERICENTER":339.8426,"MEAN_ANOMALY":20.2486,"EPHEMERIS_TYPE":0,"CLASSIFICATION_TYPE":"U","NORAD_CAT_ID":28353,"ELEMENT_SET_NO":999,"REV_AT_EPOCH":12623,"BSTAR":0.00021667,"MEAN_MOTION_DOT":3.69e-6,"MEAN_MOTION_DDOT":0},{"OBJECT_NAME":"CZ-4B R/B","OBJECT_ID":"2004-035C","EPOCH":"2026-04-02T08:01:11.782560","MEAN_MOTION":15.29486524,"ECCENTRICITY":0.00301895,"INCLINATION":97.3455,"RA_OF_ASC_NODE":126.2948,"ARG_OF_PERICENTER":242.9987,"MEAN_ANOMALY":116.8171,"EPHEMERIS_TYPE":0,"CLASSIFICATION_TYPE":"U","NORAD_CAT_ID":28415,"ELEMENT_SET_NO":999,"REV_AT_EPOCH":18352,"BSTAR":0.00039051821,"MEAN_MOTION_DOT":0.00011245,"MEAN_MOTION_DDOT":0},{"OBJECT_NAME":"CZ-2D R/B","OBJECT_ID":"2005-024B","EPOCH":"2026-04-02T07:06:34.741152","MEAN_MOTION":15.62381263,"ECCENTRICITY":0.00018227,"INCLINATION":97.3564,"RA_OF_ASC_NODE":108.3444,"ARG_OF_PERICENTER":300.0803,"MEAN_ANOMALY":60.0274,"EPHEMERIS_TYPE":0,"CLASSIFICATION_TYPE":"U","NORAD_CAT_ID":28738,"ELEMENT_SET_NO":999,"REV_AT_EPOCH":14346,"BSTAR":0.00071388408,"MEAN_MOTION_DOT":0.00063445,"MEAN_MOTION_DDOT":0}]
